OBJECT_NAME,OBJECT_ID,EPOCH,MEAN_MOTION,ECCENTRICITY,INCLINATION,RA_OF_ASC_NODE,ARG_OF_PERICENTER,MEAN_ANOMALY,EPHEMERIS_TYPE,CLASSIFICATION_TYPE,NORAD_CAT_ID,ELEMENT_SET_NO,REV_AT_EPOCH,BSTAR,MEAN_MOTION_DOT,MEAN_MOTION_DDOT
STARLINK-36463,2026-002L,2026-06-07T08:21:46.414368,15.27581821,.0000805,42.9977,178.6951,282.2874,77.7887,0,U,67315,999,2485,.72401E-3,.19715E-3,0
STARLINK-36461,2026-002M,2026-06-07T00:00:04.000320,15.27558153,.0001409,42.9997,180.6100,266.4306,356.7062,0,U,67316,999,588,.14423E-2,.39614E-3,0
STARLINK-36450,2026-002N,2026-06-07T07:50:30.772320,15.27586350,.0001911,43.0000,179.3984,271.3820,88.6813,0,U,67317,999,2494,.68316E-3,.18588E-3,0
STARLINK-36498,2026-002P,2026-06-07T10:32:56.124672,15.27555742,.0001891,43.0034,178.5265,279.5869,80.4769,0,U,67318,999,2486,-.99317E-4,-.2992E-4,0
STARLINK-36470,2026-002Q,2026-06-06T18:56:54.064896,15.27616170,.00019764,43.0047,182.2515,280.5393,79.5236,0,U,67319,999,2476,.88294707E-3,.24141E-3,0
STARLINK-36500,2026-002R,2026-06-07T07:56:03.743232,15.27589836,.0004937,43.0050,179.4280,277.4799,82.5492,0,U,67320,999,2484,.54451E-3,.14759E-3,0
STARLINK-36462,2026-002S,2026-06-06T19:06:08.644032,15.27570487,.00023567,43.0010,182.2946,265.1737,94.8846,0,U,67321,999,2470,.43248754E-4,.927E-5,0
STARLINK-36434,2026-002T,2026-06-06T08:12:36.650304,15.27600861,.00019115,43.0023,184.9096,259.7643,100.2993,0,U,67322,999,2463,.87231588E-3,.23835E-3,0
STARLINK-36497,2026-002U,2026-06-07T08:47:39.513120,15.27599544,.0000186,43.0015,178.8293,284.8018,75.2813,0,U,67323,999,2485,.99364E-3,.27198E-3,0
STARLINK-36471,2026-002V,2026-06-07T08:27:20.047104,15.27571638,.0000998,42.9997,178.7228,263.3105,96.7633,0,U,67324,999,2479,.83503E-3,.22781E-3,0
STARLINK-36473,2026-002W,2026-06-07T08:32:51.535392,15.27585487,.0000192,43.0040,178.7514,288.3139,71.7691,0,U,67325,999,2495,.68278E-3,.18577E-3,0
STARLINK-36430,2026-002X,2026-06-07T08:01:23.788704,15.27577628,.0000484,42.9950,178.5807,144.4293,215.6590,0,U,67326,999,2495,.6303E-3,.17122E-3,0
STARLINK-36501,2026-002Y,2026-06-06T18:03:13.724352,15.27616877,.00034035,43.0005,181.9539,278.9473,81.0993,0,U,67327,999,2470,.11266445E-2,.30909E-3,0
STARLINK-36489,2026-002Z,2026-06-07T04:23:41.316576,15.27610958,.0000063,42.9978,180.0416,261.8344,98.2501,0,U,67328,999,2492,.49298E-3,.13341E-3,0
STARLINK-36496,2026-002AA,2026-06-06T18:36:32.186592,15.27611543,.00032602,43.0012,182.1392,268.7323,91.3155,0,U,67329,999,2468,.74854936E-3,.20415E-3,0
STARLINK-36483,2026-002AB,2026-06-06T08:08:54.754368,15.27596103,.00020932,43.0024,184.8887,258.1659,101.8958,0,U,67330,999,2479,.81461231E-3,.22233E-3,0
STARLINK-36494,2026-002AC,2026-06-07T08:49:29.019072,15.27628837,.0001491,43.0035,178.8386,270.9226,89.1455,0,U,67331,999,2495,.95116E-3,.26043E-3,0
STARLINK-36492,2026-002AD,2026-06-07T07:52:21.638208,15.27592690,.0001681,43.0012,179.4088,282.6585,77.4078,0,U,67332,999,2494,.57502E-3,.15601E-3,0
STARLINK-36427,2026-002AE,2026-06-06T04:38:23.303328,15.27651530,.00004914,42.9988,185.4946,181.2480,178.8370,0,U,67333,999,2467,.87085815E-3,.23832E-3,0
STARLINK-35343,2026-003A,2026-06-07T11:12:40.230720,15.27598614,.0002338,42.9998,80.1019,274.0344,86.0241,0,U,67334,999,2255,.91606E-3,.25047E-3,0
STARLINK-36486,2026-003B,2026-06-06T01:43:54.668064,15.27625239,.00022835,43.0032,87.6916,274.2288,85.8303,0,U,67335,999,2234,.89509519E-3,.24485E-3,0
STARLINK-36480,2026-003C,2026-06-07T11:23:48.202944,15.27591258,.0000685,43.0021,80.1626,257.3591,102.7184,0,U,67336,999,2255,.1152E-2,.31584E-3,0
STARLINK-36410,2026-003D,2026-06-07T11:49:40.524096,15.27597103,.0001917,43.0000,80.3019,269.8103,90.2529,0,U,67337,999,2255,.6952E-4,.1652E-4,0
STARLINK-36413,2026-003E,2026-06-07T11:38:35.926656,15.27570674,.0001559,43.0002,80.2431,265.4474,94.6200,0,U,67338,999,2255,.72129E-3,.19634E-3,0
STARLINK-36451,2026-003F,2026-06-07T11:18:13.251744,15.27602711,.0002389,42.9963,80.1289,277.6293,82.4287,0,U,67339,999,2255,.9238E-3,.25265E-3,0
STARLINK-36339,2026-003G,2026-06-07T01:42:11.189376,15.27607330,.0002345,43.0028,82.2907,277.5771,82.4815,0,U,67340,999,2249,.99815E-3,.2733E-3,0
STARLINK-36453,2026-003H,2026-06-07T06:19:06.305088,15.27537895,.0001953,43.0004,81.1512,273.9922,86.0707,0,U,67341,999,2252,.82555E-3,.22496E-3,0
STARLINK-36432,2026-003J,2026-06-06T12:31:55.301376,15.27602645,.0001595,43.0033,85.0440,263.9714,96.0956,0,U,67342,999,2241,.79426E-3,.21674E-3,0
STARLINK-36458,2026-003K,2026-06-07T01:27:22.910112,15.27612200,.0002442,43.0019,82.2082,270.6146,89.4426,0,U,67343,999,2249,.12009E-2,.32965E-3,0
STARLINK-36422,2026-003L,2026-06-06T12:37:28.636032,15.27603456,.0000983,43.0040,85.0748,271.0996,88.9743,0,U,67344,999,2241,.81018E-3,.22115E-3,0
