STARLINK-36463          
1 67315U 26002L   26158.34845387  .00019715  00000+0  72401-3 0  9995
2 67315  42.9977 178.6951 0000805 282.2874  77.7887 15.27581821 24858
STARLINK-36461          
1 67316U 26002M   26158.00004630  .00039614  00000+0  14423-2 0  9996
2 67316  42.9997 180.6100 0001409 266.4306 356.7062 15.27558153  5884
STARLINK-36450          
1 67317U 26002N   26158.32674505  .00018588  00000+0  68316-3 0  9994
2 67317  43.0000 179.3984 0001911 271.3820  88.6813 15.27586350 24944
STARLINK-36498          
1 67318U 26002P   26158.43953848 -.00002992  00000+0 -99317-4 0  9997
2 67318  43.0034 178.5265 0001891 279.5869  80.4769 15.27555742 24867
STARLINK-36470          
1 67319U 26002Q   26157.78951464  .00024141  00000+0  88295-3 0  9997
2 67319  43.0047 182.2515 0001976 280.5393  79.5236 15.27616170 24760
STARLINK-36500          
1 67320U 26002R   26158.33059888  .00014759  00000+0  54451-3 0  9991
2 67320  43.0050 179.4280 0004937 277.4799  82.5492 15.27589836 24843
STARLINK-36462          
1 67321U 26002S   26157.79593338  .00000927  00000+0  43249-4 0  9990
2 67321  43.0010 182.2946 0002356 265.1737  94.8846 15.27570487 24706
STARLINK-36434          
1 67322U 26002T   26157.34209086  .00023835  00000+0  87232-3 0  9998
2 67322  43.0023 184.9096 0001911 259.7643 100.2993 15.27600861 24634
STARLINK-36497          
1 67323U 26002U   26158.36642955  .00027198  00000+0  99364-3 0  9993
2 67323  43.0015 178.8293 0000186 284.8018  75.2813 15.27599544 24856
STARLINK-36471          
1 67324U 26002V   26158.35231536  .00022781  00000+0  83503-3 0  9993
2 67324  42.9997 178.7228 0000998 263.3105  96.7633 15.27571638 24796
STARLINK-36473          
1 67325U 26002W   26158.35615203  .00018577  00000+0  68278-3 0  9991
2 67325  43.0040 178.7514 0000192 288.3139  71.7691 15.27585487 24958
STARLINK-36430          
1 67326U 26002X   26158.33430311  .00017122  00000+0  63030-3 0  9991
2 67326  42.9950 178.5807 0000484 144.4293 215.6590 15.27577628 24952
STARLINK-36501          
1 67327U 26002Y   26157.75224218  .00030909  00000+0  11266-2 0  9995
2 67327  43.0005 181.9539 0003403 278.9473  81.0993 15.27616877 24708
STARLINK-36489          
1 67328U 26002Z   26158.18311709  .00013341  00000+0  49298-3 0  9994
2 67328  42.9978 180.0416 0000063 261.8344  98.2501 15.27610958 24920
STARLINK-36496          
1 67329U 26002AA  26157.77537253  .00020415  00000+0  74855-3 0  9990
2 67329  43.0012 182.1392 0003260 268.7323  91.3155 15.27611543 24686
STARLINK-36483          
1 67330U 26002AB  26157.33952262  .00022233  00000+0  81461-3 0  9996
2 67330  43.0024 184.8887 0002093 258.1659 101.8958 15.27596103 24791
STARLINK-36494          
1 67331U 26002AC  26158.36769698  .00026043  00000+0  95116-3 0  9995
2 67331  43.0035 178.8386 0001491 270.9226  89.1455 15.27628837 24952
STARLINK-36492          
1 67332U 26002AD  26158.32802822  .00015601  00000+0  57502-3 0  9994
2 67332  43.0012 179.4088 0001681 282.6585  77.4078 15.27592690 24940
STARLINK-36427          
1 67333U 26002AE  26157.19332527  .00023832  00000+0  87086-3 0  9994
2 67333  42.9988 185.4946 0000491 181.2480 178.8370 15.27651530 24677
STARLINK-35343          
1 67334U 26003A   26158.46713230  .00025047  00000+0  91606-3 0  9994
2 67334  42.9998  80.1019 0002338 274.0344  86.0241 15.27598614 22558
STARLINK-36486          
1 67335U 26003B   26157.07216051  .00024485  00000+0  89510-3 0  9996
2 67335  43.0032  87.6916 0002283 274.2288  85.8303 15.27625239 22343
STARLINK-36480          
1 67336U 26003C   26158.47486346  .00031584  00000+0  11520-2 0  9991
2 67336  43.0021  80.1626 0000685 257.3591 102.7184 15.27591258 22553
STARLINK-36410          
1 67337U 26003D   26158.49283014  .00001652  00000+0  69520-4 0  9999
2 67337  43.0000  80.3019 0001917 269.8103  90.2529 15.27597103 22554
STARLINK-36413          
1 67338U 26003E   26158.48513804  .00019634  00000+0  72129-3 0  9999
2 67338  43.0002  80.2431 0001559 265.4474  94.6200 15.27570674 22557
STARLINK-36451          
1 67339U 26003F   26158.47098671  .00025265  00000+0  92380-3 0  9997
2 67339  42.9963  80.1289 0002389 277.6293  82.4287 15.27602711 22556
STARLINK-36339          
1 67340U 26003G   26158.07096284  .00027330  00000+0  99815-3 0  9998
2 67340  43.0028  82.2907 0002345 277.5771  82.4815 15.27607330 22496
STARLINK-36453          
1 67341U 26003H   26158.26326742  .00022496  00000+0  82555-3 0  9996
2 67341  43.0004  81.1512 0001953 273.9922  86.0707 15.27537895 22525
STARLINK-36432          
1 67342U 26003J   26157.52216784  .00021674  00000+0  79426-3 0  9999
2 67342  43.0033  85.0440 0001595 263.9714  96.0956 15.27602645 22412
STARLINK-36458          
1 67343U 26003K   26158.06068183  .00032965  00000+0  12009-2 0  9996
2 67343  43.0019  82.2082 0002442 270.6146  89.4426 15.27612200 22498
STARLINK-36422          
1 67344U 26003L   26157.52602588  .00022115  00000+0  81018-3 0  9993
2 67344  43.0040  85.0748 0000983 271.0996  88.9743 15.27603456 22410
